{"type": "FeatureCollection", "features": [{"type": "Feature", "properties": {"norad_id": 22675, "name": "COSMOS 2251", "group": "cosmos-2251-debris", "lat": 9.220389263760847, "lon": -57.663859999169794, "alt_km": 765.2097105486955, "timestamp": "2025-12-21T14:40:48.311088+00:00", "meta": {"OBJECT_NAME": "COSMOS 2251", "OBJECT_ID": "1993-036A", "EPOCH": "2025-12-21T06:15:34.168896", "MEAN_MOTION": 14.33207071, "ECCENTRICITY": 0.00243044, "INCLINATION": 74.04, "RA_OF_ASC_NODE": 300.3143, "ARG_OF_PERICENTER": 20.2019, "MEAN_ANOMALY": 340.0088, "EPHEMERIS_TYPE": 0, "CLASSIFICATION_TYPE": "U", "NORAD_CAT_ID": 22675, "ELEMENT_SET_NO": 999, "REV_AT_EPOCH": 69895, "BSTAR": 3.9310553e-05, "MEAN_MOTION_DOT": 8.2e-07, "MEAN_MOTION_DDOT": 0}, "tle": {"line1": "1 22675U 93036A   25355.26081214  .00000082  00000+0  39311-4 0  9997", "line2": "2 22675  74.0400 300.3143 0024304  20.2019 340.0088 14.33207071698958"}}, "geometry": {"type": "Point", "coordinates": [-57.663859999169794, 9.220389263760847]}}, {"type": "Feature", "properties": {"norad_id": 33757, "name": "COSMOS 2251 DEB", "group": "cosmos-2251-debris", "lat": 27.525803322368336, "lon": -44.00817307643714, "alt_km": 777.7057279385817, "timestamp": "2025-12-21T14:40:48.311112+00:00", "meta": {"OBJECT_NAME": "COSMOS 2251 DEB", "OBJECT_ID": "1993-036E", "EPOCH": "2025-12-21T06:29:54.081312", "MEAN_MOTION": 14.32583024, "ECCENTRICITY": 0.00155496, "INCLINATION": 74.0374, "RA_OF_ASC_NODE": 308.0355, "ARG_OF_PERICENTER": 319.9372, "MEAN_ANOMALY": 111.2771, "EPHEMERIS_TYPE": 0, "CLASSIFICATION_TYPE": "U", "NORAD_CAT_ID": 33757, "ELEMENT_SET_NO": 999, "REV_AT_EPOCH": 88118, "BSTAR": 3.5349889e-05, "MEAN_MOTION_DOT": 7e-07, "MEAN_MOTION_DDOT": 0}, "tle": {"line1": "1 33757U 93036E   25355.27076483  .00000070  00000+0  35350-4 0  9999", "line2": "2 33757  74.0374 308.0355 0015549 319.9372 111.2771 14.32583024881182"}}, "geometry": {"type": "Point", "coordinates": [-44.00817307643714, 27.525803322368336]}}, {"type": "Feature", "properties": {"norad_id": 33758, "name": "COSMOS 2251 DEB", "group": "cosmos-2251-debris", "lat": -39.637729805677196, "lon": 32.04496912130354, "alt_km": 717.479525053468, "timestamp": "2025-12-21T14:40:48.311127+00:00", "meta": {"OBJECT_NAME": "COSMOS 2251 DEB", "OBJECT_ID": "1993-036F", "EPOCH": "2025-12-21T00:58:39.548928", "MEAN_MOTION": 14.51638042, "ECCENTRICITY": 0.00172005, "INCLINATION": 74.0264, "RA_OF_ASC_NODE": 199.3942, "ARG_OF_PERICENTER": 265.5651, "MEAN_ANOMALY": 213.618, "EPHEMERIS_TYPE": 0, "CLASSIFICATION_TYPE": "U", "NORAD_CAT_ID": 33758, "ELEMENT_SET_NO": 999, "REV_AT_EPOCH": 88425, "BSTAR": 0.00049693283, "MEAN_MOTION_DOT": 1.968e-05, "MEAN_MOTION_DDOT": 0}, "tle": {"line1": "1 33758U 93036F   25355.04073552  .00001968  00000+0  49693-3 0  9990", "line2": "2 33758  74.0264 199.3942 0017200 265.5651 213.6180 14.51638042884250"}}, "geometry": {"type": "Point", "coordinates": [32.04496912130354, -39.637729805677196]}}, {"type": "Feature", "properties": {"norad_id": 33760, "name": "COSMOS 2251 DEB", "group": "cosmos-2251-debris", "lat": 14.015597848854341, "lon": -90.72694916294819, "alt_km": 759.3527101565387, "timestamp": "2025-12-21T14:40:48.311140+00:00", "meta": {"OBJECT_NAME": "COSMOS 2251 DEB", "OBJECT_ID": "1993-036H", "EPOCH": "2025-12-21T05:07:40.645632", "MEAN_MOTION": 14.3567774, "ECCENTRICITY": 0.00202329, "INCLINATION": 74.0321, "RA_OF_ASC_NODE": 265.9047, "ARG_OF_PERICENTER": 2.1659, "MEAN_ANOMALY": 116.2402, "EPHEMERIS_TYPE": 0, "CLASSIFICATION_TYPE": "U", "NORAD_CAT_ID": 33760, "ELEMENT_SET_NO": 999, "REV_AT_EPOCH": 88246, "BSTAR": 7.6755476e-05, "MEAN_MOTION_DOT": 1.96e-06, "MEAN_MOTION_DDOT": 0}, "tle": {"line1": "1 33760U 93036H   25355.21366488  .00000196  00000+0  76755-4 0  9997", "line2": "2 33760  74.0321 265.9047 0020232   2.1659 116.2402 14.35677740882461"}}, "geometry": {"type": "Point", "coordinates": [-90.72694916294819, 14.015597848854341]}}, {"type": "Feature", "properties": {"norad_id": 33761, "name": "COSMOS 2251 DEB", "group": "cosmos-2251-debris", "lat": 16.307154859091447, "lon": 50.898625127287005, "alt_km": 764.899784601892, "timestamp": "2025-12-21T14:40:48.311152+00:00", "meta": {"OBJECT_NAME": "COSMOS 2251 DEB", "OBJECT_ID": "1993-036J", "EPOCH": "2025-12-21T02:58:26.077152", "MEAN_MOTION": 14.42566487, "ECCENTRICITY": 0.00232607, "INCLINATION": 74.0352, "RA_OF_ASC_NODE": 236.6074, "ARG_OF_PERICENTER": 315.6638, "MEAN_ANOMALY": 195.3572, "EPHEMERIS_TYPE": 0, "CLASSIFICATION_TYPE": "U", "NORAD_CAT_ID": 33761, "ELEMENT_SET_NO": 999, "REV_AT_EPOCH": 88355, "BSTAR": 0.00027682531, "MEAN_MOTION_DOT": 8.95e-06, "MEAN_MOTION_DDOT": 0}, "tle": {"line1": "1 33761U 93036J   25355.12391293  .00000895  00000+0  27683-3 0  9991", "line2": "2 33761  74.0352 236.6074 0023260 315.6638 195.3572 14.42566487883554"}}, "geometry": {"type": "Point", "coordinates": [50.898625127287005, 16.307154859091447]}}, {"type": "Feature", "properties": {"norad_id": 33762, "name": "COSMOS 2251 DEB", "group": "cosmos-2251-debris", "lat": -63.291139348785535, "lon": 148.4662570495677, "alt_km": 789.1442892476261, "timestamp": "2025-12-21T14:40:48.311163+00:00", "meta": {"OBJECT_NAME": "COSMOS 2251 DEB", "OBJECT_ID": "1993-036K", "EPOCH": "2025-12-21T05:41:28.420800", "MEAN_MOTION": 14.33666157, "ECCENTRICITY": 0.00153577, "INCLINATION": 74.0421, "RA_OF_ASC_NODE": 294.4913, "ARG_OF_PERICENTER": 353.8674, "MEAN_ANOMALY": 122.2818, "EPHEMERIS_TYPE": 0, "CLASSIFICATION_TYPE": "U", "NORAD_CAT_ID": 33762, "ELEMENT_SET_NO": 999, "REV_AT_EPOCH": 88169, "BSTAR": 4.2005131e-05, "MEAN_MOTION_DOT": 9.1e-07, "MEAN_MOTION_DDOT": 0}, "tle": {"line1": "1 33762U 93036K   25355.23713450  .00000091  00000+0  42005-4 0  9991", "line2": "2 33762  74.0421 294.4913 0015357 353.8674 122.2818 14.33666157881698"}}, "geometry": {"type": "Point", "coordinates": [148.4662570495677, -63.291139348785535]}}, {"type": "Feature", "properties": {"norad_id": 33764, "name": "COSMOS 2251 DEB", "group": "cosmos-2251-debris", "lat": -33.5881388151871, "lon": 87.23564558813975, "alt_km": 749.1270852520902, "timestamp": "2025-12-21T14:40:48.311174+00:00", "meta": {"OBJECT_NAME": "COSMOS 2251 DEB", "OBJECT_ID": "1993-036M", "EPOCH": "2025-12-21T04:24:13.381344", "MEAN_MOTION": 14.39526271, "ECCENTRICITY": 0.00235595, "INCLINATION": 74.0335, "RA_OF_ASC_NODE": 257.0656, "ARG_OF_PERICENTER": 221.247, "MEAN_ANOMALY": 295.738, "EPHEMERIS_TYPE": 0, "CLASSIFICATION_TYPE": "U", "NORAD_CAT_ID": 33764, "ELEMENT_SET_NO": 999, "REV_AT_EPOCH": 88278, "BSTAR": 0.00021591813, "MEAN_MOTION_DOT": 6.49e-06, "MEAN_MOTION_DDOT": 0}, "tle": {"line1": "1 33764U 93036M   25355.18348821  .00000649  00000+0  21592-3 0  9999", "line2": "2 33764  74.0335 257.0656 0023559 221.2470 295.7380 14.39526271882787"}}, "geometry": {"type": "Point", "coordinates": [87.23564558813975, -33.5881388151871]}}, {"type": "Feature", "properties": {"norad_id": 33765, "name": "COSMOS 2251 DEB", "group": "cosmos-2251-debris", "lat": 38.252382816738184, "lon": -38.31346484430409, "alt_km": 543.4537066094026, "timestamp": "2025-12-21T14:40:48.311185+00:00", "meta": {"OBJECT_NAME": "COSMOS 2251 DEB", "OBJECT_ID": "1993-036N", "EPOCH": "2025-12-20T21:16:49.482048", "MEAN_MOTION": 15.10410664, "ECCENTRICITY": 0.0064975, "INCLINATION": 74.0079, "RA_OF_ASC_NODE": 156.2541, "ARG_OF_PERICENTER": 247.0336, "MEAN_ANOMALY": 273.0579, "EPHEMERIS_TYPE": 0, "CLASSIFICATION_TYPE": "U", "NORAD_CAT_ID": 33765, "ELEMENT_SET_NO": 999, "REV_AT_EPOCH": 89741, "BSTAR": 0.0011839, "MEAN_MOTION_DOT": 0.00020474, "MEAN_MOTION_DDOT": 0}, "tle": {"line1": "1 33765U 93036N   25354.88668382  .00020474  00000+0  11839-2 0  9993", "line2": "2 33765  74.0079 156.2541 0064975 247.0336 273.0579 15.10410664897413"}}, "geometry": {"type": "Point", "coordinates": [-38.31346484430409, 38.252382816738184]}}, {"type": "Feature", "properties": {"norad_id": 33766, "name": "COSMOS 2251 DEB", "group": "cosmos-2251-debris", "lat": 64.1570149198697, "lon": -96.94610898243938, "alt_km": 808.89398747827, "timestamp": "2025-12-21T14:40:48.311196+00:00", "meta": {"OBJECT_NAME": "COSMOS 2251 DEB", "OBJECT_ID": "1993-036P", "EPOCH": "2025-12-20T18:05:14.529696", "MEAN_MOTION": 14.34954991, "ECCENTRICITY": 0.00645779, "INCLINATION": 74.1857, "RA_OF_ASC_NODE": 120.4265, "ARG_OF_PERICENTER": 321.5896, "MEAN_ANOMALY": 38.0667, "EPHEMERIS_TYPE": 0, "CLASSIFICATION_TYPE": "U", "NORAD_CAT_ID": 33766, "ELEMENT_SET_NO": 999, "REV_AT_EPOCH": 87860, "BSTAR": 0.00035289789, "MEAN_MOTION_DOT": 1.003e-05, "MEAN_MOTION_DDOT": 0}, "tle": {"line1": "1 33766U 93036P   25354.75364039  .00001003  00000+0  35290-3 0  9997", "line2": "2 33766  74.1857 120.4265 0064577 321.5896  38.0667 14.34954991878600"}}, "geometry": {"type": "Point", "coordinates": [-96.94610898243938, 64.1570149198697]}}, {"type": "Feature", "properties": {"norad_id": 33768, "name": "COSMOS 2251 DEB", "group": "cosmos-2251-debris", "lat": 55.4134216633501, "lon": 1.0747106792214753, "alt_km": 1162.785753949287, "timestamp": "2025-12-21T14:40:48.311206+00:00", "meta": {"OBJECT_NAME": "COSMOS 2251 DEB", "OBJECT_ID": "1993-036R", "EPOCH": "2025-12-21T02:18:36.209952", "MEAN_MOTION": 13.58461626, "ECCENTRICITY": 0.03667157, "INCLINATION": 74.0666, "RA_OF_ASC_NODE": 206.3813, "ARG_OF_PERICENTER": 2.3032, "MEAN_ANOMALY": 115.3659, "EPHEMERIS_TYPE": 0, "CLASSIFICATION_TYPE": "U", "NORAD_CAT_ID": 33768, "ELEMENT_SET_NO": 999, "REV_AT_EPOCH": 83409, "BSTAR": 0.00025722569, "MEAN_MOTION_DOT": 2.69e-06, "MEAN_MOTION_DDOT": 0}, "tle": {"line1": "1 33768U 93036R   25355.09625243  .00000269  00000+0  25723-3 0  9997", "line2": "2 33768  74.0666 206.3813 0366715   2.3032 115.3659 13.58461626834095"}}, "geometry": {"type": "Point", "coordinates": [1.0747106792214753, 55.4134216633501]}}]}